IRIDIUM 65 [+]          
1 25288U 98021D   16090.43512861  .00000178  00000-0  56585-4 0  9990
2 25288  86.3968  49.3620 0002252  80.3223 279.8227 14.34220002941414
IRIDIUM 66 [+]          
1 25289U 98021E   16090.46541022  .00000189  00000-0  60430-4 0  9991
2 25289  86.3967  49.2564 0002308  82.8383  40.7805 14.34219785941419
IRIDIUM 67 [+]          
1 25290U 98021F   16090.37804295  .00000176  00000-0  55667-4 0  9999
2 25290  86.3968  49.4227 0002257  84.1996 275.9457 14.34220061941412
IRIDIUM 68 [+]          
1 25291U 98021G   16090.38439151  .00000177  00000-0  56179-4 0  9996
2 25291  86.3969  49.5303 0002345  84.4541 275.6922 14.34219897941382
IRIDIUM 69 [-]          
1 25319U 98026A   16090.49079888  .00000207  00000-0  61233-4 0  9992
2 25319  86.3964  72.3781 0000977  27.8266 332.2984 14.38572329939242
IRIDIUM 71 [-]          
1 25320U 98026B   16090.46964013  .00000148  00000-0  41394-4 0  9994
2 25320  86.3952  68.4895 0003113  47.6058 312.5404 14.38993759939654
IRIDIUM 70 [+]          
1 25342U 98032A   16090.43449287  .00000174  00000-0  55147-4 0  9993
2 25342  86.3972  49.7301 0002339  81.9702  45.8173 14.34220056935496
IRIDIUM 72 [+]          
1 25343U 98032B   16090.42609977  .00000184  00000-0  58579-4 0  9990
2 25343  86.3968  49.3744 0002262  83.6358  66.2667 14.34219883935491
IRIDIUM 73 [-]          
1 25344U 98032C   16090.44413848  .00000229  00000-0  55214-4 0  9996
2 25344  86.4460  30.4546 0002930  91.6794 268.4746 14.48915675943294
IRIDIUM 74 [S]          
1 25345U 98032D   16090.47762194  .00000203  00000-0  54827-4 0  9992
2 25345  86.4478  49.6862 0002099  86.0196  21.1702 14.42948731938762
IRIDIUM 75 [+]          
1 25346U 98032E   16090.43247071  .00000176  00000-0  55713-4 0  9995
2 25346  86.3971  49.6084 0002260  84.2686  65.7953 14.34219957936065
IRIDIUM 3 [+]           
1 25431U 98048A   16090.55083977  .00000087  00000-0  24025-4 0  9996
2 25431  86.3929  81.1732 0002325  84.1701  36.6543 14.34217877922025
IRIDIUM 76 [+]          
1 25432U 98048B   16090.49834016  .00000009  00000-0 -38621-5 0  9991
2 25432  86.3924  80.9637 0002349  84.5627  27.6372 14.34216733922007
IRIDIUM 82 [+]          
1 25467U 98051A   16090.37619605  .00000273  00000-0  90320-4 0  9990
2 25467  86.4033 207.6154 0001890  97.1225 263.0186 14.34223973923007
IRIDIUM 81 [+]          
1 25468U 98051B   16090.36982647  .00000207  00000-0  66853-4 0  9990
2 25468  86.4008 207.2561 0002130 100.0990 260.0446 14.34221419919227
IRIDIUM 80 [+]          
1 25469U 98051C   16090.43353488  .00000225  00000-0  73290-4 0  9997
2 25469  86.4012 207.4957 0002230 101.8442 325.1963 14.34221327919232
IRIDIUM 77 [+]          
1 25471U 98051E   16090.44009378  .00000223  00000-0  72587-4 0  9993
2 25471  86.4003 207.1068 0002278  96.1892 331.9806 14.34221618924434
IRIDIUM 2 [-]           
1 25527U 98066A   16090.56253279  .00002802  00000-0  14854-3 0  9992
2 25527  85.5283 293.7727 0007404 282.4144  77.6266 15.14915226950678
IRIDIUM 86 [+]          
1 25528U 98066B   16090.38543366  .00000223  00000-0  72663-4 0  9990
2 25528  86.4009 175.3467 0002319  92.4112 267.7349 14.34216191915755
IRIDIUM 84 [+]          
1 25530U 98066D   16090.27760657  .00000240  00000-0  78723-4 0  9997
2 25530  86.4011 175.5488 0002277  99.6336 260.5117 14.34216575913372
IRIDIUM 83 [+]          
1 25531U 98066E   16090.30932118  .00000231  00000-0  75262-4 0  9990
2 25531  86.4014 175.6427 0002301  99.3852 260.7604 14.34216339910736
IRIDIUM 20 [+]          
1 25577U 98074A   16090.43855971  .00000010  00000-0 -36174-5 0  9990
2 25577  86.3923  80.9163 0002198  83.3297 276.8149 14.34216720904839
IRIDIUM 11 [+]          
1 25578U 98074B   16090.48233612  .00000023  00000-0  10875-5 0  9991
2 25578  86.3923  81.1040 0002164  86.6865  73.7773 14.34217246913805
IRIDIUM 14 [S]          
1 25777U 99032A   16090.45050816  .00000180  00000-0  57157-4 0  9994
2 25777  86.3970  49.4381 0002293  80.7776  64.1860 14.34219744891072
IRIDIUM 21 [+]          
1 25778U 99032B   16090.39072788  .00000180  00000-0  57215-4 0  9995
2 25778  86.3969  49.4872 0002326  87.5066 272.6396 14.34220087884502
IRIDIUM 91 [+]          
1 27372U 02005A   16090.52054612  .00000077  00000-0  20397-4 0  9998
2 27372  86.3944 113.2860 0002032  94.4171  16.3631 14.34212150748036
IRIDIUM 90 [S]          
1 27373U 02005B   16090.51153075  .00000278  00000-0  77090-4 0  9996
2 27373  86.4525 175.5252 0002517  94.3322 265.8166 14.42957462747375
IRIDIUM 94 [S]          
1 27374U 02005C   16090.49219376 -.00000027  00000-0 -16587-4 0  9999
2 27374  86.3922  81.2209 0003218  80.2420  32.8852 14.34215182752358
IRIDIUM 95 [+]          
1 27375U 02005D   16090.46733790 -.00000001  00000-0 -73620-5 0  9992
2 27375  86.3944 113.0910 0002313  88.2411 271.9049 14.34219530747314
IRIDIUM 96 [S]          
1 27376U 02005E   16090.23609778  .00000148  00000-0  45814-4 0  9999
2 27376  86.4006 144.6726 0003456 115.1812 244.9742 14.34222973752483
IRIDIUM 97 [+]          
1 27450U 02031A   16090.55322572  .00000138  00000-0  42207-4 0  9992
2 27450  86.3973 144.3797 0002147  98.4051 261.7389 14.34222931726644
IRIDIUM 98 [S]          
1 27451U 02031B   16090.40957659  .00000224  00000-0  72860-4 0  9991
2 27451  86.4002 207.6904 0002112 102.6646 298.9000 14.34219957727694
